{"type": "FeatureCollection", "features": [{"type": "Feature", "geometry": {"type": "Point", "coordinates": [-0.4685187, 51.639597]}, "properties": {"name": "Rickmansworth Police Station", "operator": "", "osm_id": 212847922, "osm_type": "node"}}, {"type": "Feature", "geometry": {"type": "Point", "coordinates": [-0.1296296, 51.430343]}, "properties": {"name": "Streatham Police Station", "operator": "", "osm_id": 250355929, "osm_type": "node"}}, {"type": "Feature", "geometry": {"type": "Point", "coordinates": [-0.0760846, 51.2824423]}, "properties": {"name": "Caterham Police Station", "operator": "", "osm_id": 251714014, "osm_type": "node"}}, {"type": "Feature", "geometry": {"type": "Point", "coordinates": [-0.2035509, 51.5014236]}, "properties": {"name": "Parks Police", "operator": "", "osm_id": 255469607, "osm_type": "node"}}, {"type": "Feature", "geometry": {"type": "Point", "coordinates": [0.0801659, 51.5601438]}, "properties": {"name": "Ilford Police Station", "operator": "", "osm_id": 290597117, "osm_type": "node"}}, {"type": "Feature", "geometry": {"type": "Point", "coordinates": [0.0228722, 51.6118361]}, "properties": {"name": "Woodford Police Station", "operator": "", "osm_id": 292225574, "osm_type": "node"}}, {"type": "Feature", "geometry": {"type": "Point", "coordinates": [-0.1440082, 51.5265494]}, "properties": {"name": "Albany Street Police Station", "operator": "", "osm_id": 293813406, "osm_type": "node"}}, {"type": "Feature", "geometry": {"type": "Point", "coordinates": [-0.3892175, 51.6258643]}, "properties": {"name": "Oxhey Police Station", "operator": "", "osm_id": 308506500, "osm_type": "node"}}, {"type": "Feature", "geometry": {"type": "Point", "coordinates": [-0.268619, 51.6593398]}, "properties": {"name": "Borehamwood Police Station", "operator": "", "osm_id": 365582595, "osm_type": "node"}}, {"type": "Feature", "geometry": {"type": "Point", "coordinates": [-0.1108039, 51.5024485]}, "properties": {"name": "British Transport Police", "operator": "British Transport Police", "osm_id": 409888612, "osm_type": "node"}}, {"type": "Feature", "geometry": {"type": "Point", "coordinates": [-0.3849823, 51.5958008]}, "properties": {"name": "Pinner Police Station", "operator": "Metropolitan Police", "osm_id": 530772605, "osm_type": "node"}}, {"type": "Feature", "geometry": {"type": "Point", "coordinates": [-0.1345656, 51.5277108]}, "properties": {"name": "British Transport Police", "operator": "British Transport Police", "osm_id": 571462872, "osm_type": "node"}}, {"type": "Feature", "geometry": {"type": "Point", "coordinates": [-0.2295834, 51.4552902]}, "properties": {"name": "West Putney Ward Metropolitain Police", "operator": "", "osm_id": 706611753, "osm_type": "node"}}, {"type": "Feature", "geometry": {"type": "Point", "coordinates": [-0.4350209, 51.5250567]}, "properties": {"name": "Hayes Police Station", "operator": "", "osm_id": 713773542, "osm_type": "node"}}, {"type": "Feature", "geometry": {"type": "Point", "coordinates": [0.0804994, 51.5883992]}, "properties": {"name": "Barkingside Police Station", "operator": "", "osm_id": 747039457, "osm_type": "node"}}, {"type": "Feature", "geometry": {"type": "Point", "coordinates": [-0.163449, 51.4807695]}, "properties": {"name": "Park Police", "operator": "", "osm_id": 759899458, "osm_type": "node"}}, {"type": "Feature", "geometry": {"type": "Point", "coordinates": [0.0850636, 51.608004]}, "properties": {"name": "Limes Farm Police Office", "operator": "", "osm_id": 843653375, "osm_type": "node"}}, {"type": "Feature", "geometry": {"type": "Point", "coordinates": [-0.081174, 51.5178898]}, "properties": {"name": "Transport Police", "operator": "Transport Police", "osm_id": 1390303288, "osm_type": "node"}}, {"type": "Feature", "geometry": {"type": "Point", "coordinates": [-0.3336633, 51.5779471]}, "properties": {"name": "Harrow Central Police Station", "operator": "", "osm_id": 1489585808, "osm_type": "node"}}, {"type": "Feature", "geometry": {"type": "Point", "coordinates": [-0.1329247, 51.4713341]}, "properties": {"name": "Police station", "operator": "", "osm_id": 1726841079, "osm_type": "node"}}, {"type": "Feature", "geometry": {"type": "Point", "coordinates": [-0.5053948, 51.4341714]}, "properties": {"name": "Police station", "operator": "", "osm_id": 1778970786, "osm_type": "node"}}, {"type": "Feature", "geometry": {"type": "Point", "coordinates": [-0.3730301, 51.4096935]}, "properties": {"name": "Police station", "operator": "", "osm_id": 1779488279, "osm_type": "node"}}, {"type": "Feature", "geometry": {"type": "Point", "coordinates": [-0.0956861, 51.4995953]}, "properties": {"name": "Overseas Visitors Records Office", "operator": "", "osm_id": 1944287042, "osm_type": "node"}}, {"type": "Feature", "geometry": {"type": "Point", "coordinates": [0.1912685, 51.5205323]}, "properties": {"name": "Rainham Police Station", "operator": "Metropolitan Police", "osm_id": 1960173841, "osm_type": "node"}}, {"type": "Feature", "geometry": {"type": "Point", "coordinates": [-0.027751, 51.5898333]}, "properties": {"name": "Police station", "operator": "", "osm_id": 2139997784, "osm_type": "node"}}, {"type": "Feature", "geometry": {"type": "Point", "coordinates": [-0.3776763, 51.5297]}, "properties": {"name": "Metropolitan Police", "operator": "", "osm_id": 2295993540, "osm_type": "node"}}, {"type": "Feature", "geometry": {"type": "Point", "coordinates": [-0.3674718, 51.5488953]}, "properties": {"name": "Metropolitan Police ward office", "operator": "", "osm_id": 3208749516, "osm_type": "node"}}, {"type": "Feature", "geometry": {"type": "Point", "coordinates": [0.2000823, 51.5495047]}, "properties": {"name": "Elm Park Ward", "operator": "", "osm_id": 3569370440, "osm_type": "node"}}, {"type": "Feature", "geometry": {"type": "Point", "coordinates": [-0.124811, 51.5795393]}, "properties": {"name": "Metropolitan Police", "operator": "Metropolitan Police", "osm_id": 3662044364, "osm_type": "node"}}, {"type": "Feature", "geometry": {"type": "Point", "coordinates": [-0.1024403, 51.5897657]}, "properties": {"name": "Turnpike Parade Safer Neighbourhood Team Base", "operator": "", "osm_id": 4360622780, "osm_type": "node"}}, {"type": "Feature", "geometry": {"type": "Point", "coordinates": [-0.2546171, 51.5418878]}, "properties": {"name": "Harlesden Police Station", "operator": "", "osm_id": 4521782579, "osm_type": "node"}}, {"type": "Feature", "geometry": {"type": "Point", "coordinates": [-0.1621063, 51.643233]}, "properties": {"name": "Safer Neighbourhoods", "operator": "", "osm_id": 4603423060, "osm_type": "node"}}, {"type": "Feature", "geometry": {"type": "Point", "coordinates": [-0.2647494, 51.3327635]}, "properties": {"name": "Epsom Police Station", "operator": "", "osm_id": 6338721194, "osm_type": "node"}}, {"type": "Feature", "geometry": {"type": "Point", "coordinates": [-0.1712033, 51.5229274]}, "properties": {"name": "Police station", "operator": "", "osm_id": 6493661730, "osm_type": "node"}}, {"type": "Feature", "geometry": {"type": "Point", "coordinates": [0.0799034, 51.5365116]}, "properties": {"name": "Barking Police", "operator": "", "osm_id": 6747156328, "osm_type": "node"}}, {"type": "Feature", "geometry": {"type": "Point", "coordinates": [-0.2263892, 51.4092078]}, "properties": {"name": "Dundonald, Raynes Park & West Barnes Wards Metropolitan Police Station", "operator": "", "osm_id": 6797585573, "osm_type": "node"}}, {"type": "Feature", "geometry": {"type": "Point", "coordinates": [-0.0025686, 51.5418028]}, "properties": {"name": "Stratford Police Station", "operator": "British Transport Police", "osm_id": 8284137743, "osm_type": "node"}}, {"type": "Feature", "geometry": {"type": "Point", "coordinates": [-0.0319241, 51.4397786]}, "properties": {"name": "Police station", "operator": "", "osm_id": 8563297629, "osm_type": "node"}}, {"type": "Feature", "geometry": {"type": "Point", "coordinates": [-0.0251885, 51.6081759]}, "properties": {"name": "Larkswood & Valley Police", "operator": "", "osm_id": 8693867429, "osm_type": "node"}}, {"type": "Feature", "geometry": {"type": "Point", "coordinates": [-0.0151663, 51.3757313]}, "properties": {"name": "West Wickham Ward", "operator": "Metropolitan Police", "osm_id": 9979583131, "osm_type": "node"}}, {"type": "Feature", "geometry": {"type": "Point", "coordinates": [0.0029555, 51.473051]}, "properties": {"name": "Greenwich Park Police", "operator": "Metropolitan Police", "osm_id": 10571568905, "osm_type": "node"}}, {"type": "Feature", "geometry": {"type": "Point", "coordinates": [-0.0913877, 51.5154702]}, "properties": {"name": "City of London Police", "operator": "", "osm_id": 13056082669, "osm_type": "node"}}, {"type": "Feature", "geometry": {"type": "Point", "coordinates": [0.1047151, 51.5285545]}, "properties": {"name": "Metropolitan Police Service", "operator": "Metropolitan Police Service", "osm_id": 13475138021, "osm_type": "node"}}, {"type": "Feature", "geometry": {"type": "Point", "coordinates": [-0.0144914, 51.4308085]}, "properties": {"name": "Catford Police Station", "operator": "", "osm_id": 4075902, "osm_type": "way"}}, {"type": "Feature", "geometry": {"type": "Point", "coordinates": [-0.1904805, 51.3611567]}, "properties": {"name": "Sutton Police Station", "operator": "Metropolitan Police", "osm_id": 24771676, "osm_type": "way"}}, {"type": "Feature", "geometry": {"type": "Point", "coordinates": [-0.3642195, 51.4690779]}, "properties": {"name": "Hounslow Police Station", "operator": "Metropolitan Police", "osm_id": 27522850, "osm_type": "way"}}, {"type": "Feature", "geometry": {"type": "Point", "coordinates": [-0.064691, 51.4744501]}, "properties": {"name": "Peckham Police Station", "operator": "", "osm_id": 27562101, "osm_type": "way"}}, {"type": "Feature", "geometry": {"type": "Point", "coordinates": [-0.1108283, 51.5338026]}, "properties": {"name": "Islington Police Station", "operator": "Metropolitan Police", "osm_id": 30475084, "osm_type": "way"}}, {"type": "Feature", "geometry": {"type": "Point", "coordinates": [-0.1986269, 51.4574618]}, "properties": {"name": "Wandsworth Police Station", "operator": "Metropolitan Police Service", "osm_id": 30839257, "osm_type": "way"}}, {"type": "Feature", "geometry": {"type": "Point", "coordinates": [-0.1167251, 51.5621473]}, "properties": {"name": "Holloway Police Station", "operator": "", "osm_id": 30897318, "osm_type": "way"}}, {"type": "Feature", "geometry": {"type": "Point", "coordinates": [-0.1243481, 51.5027583]}, "properties": {"name": "New Scotland Yard", "operator": "Metropolitan Police Service", "osm_id": 31117060, "osm_type": "way"}}, {"type": "Feature", "geometry": {"type": "Point", "coordinates": [-0.1413097, 51.5114746]}, "properties": {"name": "West End Central Police Station", "operator": "", "osm_id": 38432589, "osm_type": "way"}}, {"type": "Feature", "geometry": {"type": "Point", "coordinates": [-0.2409215, 51.5968691]}, "properties": {"name": "Colindale Police Station", "operator": "Metropolitan Police", "osm_id": 44953528, "osm_type": "way"}}, {"type": "Feature", "geometry": {"type": "Point", "coordinates": [0.0178801, 51.3993425]}, "properties": {"name": "Bromley Police Station", "operator": "Metropolitan Police", "osm_id": 45827695, "osm_type": "way"}}, {"type": "Feature", "geometry": {"type": "Point", "coordinates": [-0.0610766, 51.6223269]}, "properties": {"name": "Edmonton Police Station", "operator": "", "osm_id": 56651431, "osm_type": "way"}}, {"type": "Feature", "geometry": {"type": "Point", "coordinates": [-0.2052757, 51.5348469]}, "properties": {"name": "Kilburn Police station", "operator": "", "osm_id": 62111345, "osm_type": "way"}}, {"type": "Feature", "geometry": {"type": "Point", "coordinates": [-0.0975503, 51.4893643]}, "properties": {"name": "Walworth Police Station", "operator": "", "osm_id": 69216982, "osm_type": "way"}}, {"type": "Feature", "geometry": {"type": "Point", "coordinates": [-0.196224, 51.5536723]}, "properties": {"name": "West Hampstead Police Station", "operator": "Metropolitan Police", "osm_id": 77251083, "osm_type": "way"}}, {"type": "Feature", "geometry": {"type": "Point", "coordinates": [-0.3056749, 51.5515355]}, "properties": {"name": "Wembley Police Station", "operator": "Metropolitan Police", "osm_id": 80186354, "osm_type": "way"}}, {"type": "Feature", "geometry": {"type": "Point", "coordinates": [-0.1174952, 51.5207839]}, "properties": {"name": "Holborn Police Station", "operator": "Metropolitan Police", "osm_id": 81411003, "osm_type": "way"}}, {"type": "Feature", "geometry": {"type": "Point", "coordinates": [0.0687639, 51.6315384]}, "properties": {"name": "Chigwell Traffic Base", "operator": "", "osm_id": 85291158, "osm_type": "way"}}, {"type": "Feature", "geometry": {"type": "Point", "coordinates": [-0.3720718, 51.5110849]}, "properties": {"name": "Southall Police Station", "operator": "", "osm_id": 85484699, "osm_type": "way"}}, {"type": "Feature", "geometry": {"type": "Point", "coordinates": [-0.3100379, 51.5120728]}, "properties": {"name": "Ealing Police Station", "operator": "", "osm_id": 91225110, "osm_type": "way"}}, {"type": "Feature", "geometry": {"type": "Point", "coordinates": [-0.1622142, 51.4646663]}, "properties": {"name": "Lavender Hill Police Station", "operator": "Metropolitan Police", "osm_id": 93750137, "osm_type": "way"}}, {"type": "Feature", "geometry": {"type": "Point", "coordinates": [-0.1910007, 51.3612245]}, "properties": {"name": "Sutton Police Station", "operator": "", "osm_id": 97601971, "osm_type": "way"}}, {"type": "Feature", "geometry": {"type": "Point", "coordinates": [-0.1028074, 51.5170576]}, "properties": {"name": "Snow Hill Police Station", "operator": "City Of London Police", "osm_id": 98979970, "osm_type": "way"}}, {"type": "Feature", "geometry": {"type": "Point", "coordinates": [-0.0959438, 51.499324]}, "properties": {"name": "Southwark Police Station", "operator": "", "osm_id": 100275529, "osm_type": "way"}}, {"type": "Feature", "geometry": {"type": "Point", "coordinates": [0.1709412, 51.3979747]}, "properties": {"name": "Swanley Police Station", "operator": "", "osm_id": 103364376, "osm_type": "way"}}, {"type": "Feature", "geometry": {"type": "Point", "coordinates": [-0.0532848, 51.5282091]}, "properties": {"name": "Bethnal Green Police Station", "operator": "Metropolitan Police", "osm_id": 106736175, "osm_type": "way"}}, {"type": "Feature", "geometry": {"type": "Point", "coordinates": [-0.0336688, 51.3573472]}, "properties": {"name": "Police station", "operator": "", "osm_id": 111151034, "osm_type": "way"}}, {"type": "Feature", "geometry": {"type": "Point", "coordinates": [-0.4678896, 51.4824643]}, "properties": {"name": "Heathrow Police Station", "operator": "Metropolitan Police", "osm_id": 114727972, "osm_type": "way"}}, {"type": "Feature", "geometry": {"type": "Point", "coordinates": [0.1493015, 51.4570226]}, "properties": {"name": "Bexleyheath Police Station", "operator": "", "osm_id": 115864062, "osm_type": "way"}}, {"type": "Feature", "geometry": {"type": "Point", "coordinates": [0.1654575, 51.5450302]}, "properties": {"name": "Dagenham Police Station", "operator": "", "osm_id": 122868062, "osm_type": "way"}}, {"type": "Feature", "geometry": {"type": "Point", "coordinates": [0.3383398, 51.4354773]}, "properties": {"name": "North Kent Police Station", "operator": "", "osm_id": 123809922, "osm_type": "way"}}, {"type": "Feature", "geometry": {"type": "Point", "coordinates": [-0.1714694, 51.5545024]}, "properties": {"name": "Hampstead Police Station", "operator": "", "osm_id": 126218996, "osm_type": "way"}}, {"type": "Feature", "geometry": {"type": "Point", "coordinates": [-0.3068497, 51.408181]}, "properties": {"name": "Kingston Police Station", "operator": "", "osm_id": 126979326, "osm_type": "way"}}, {"type": "Feature", "geometry": {"type": "Point", "coordinates": [-0.1070511, 51.5654324]}, "properties": {"name": "British Transport Police", "operator": "British Transport Police", "osm_id": 132728780, "osm_type": "way"}}, {"type": "Feature", "geometry": {"type": "Point", "coordinates": [0.1862069, 51.5820255]}, "properties": {"name": "Romford Police Station", "operator": "", "osm_id": 134237109, "osm_type": "way"}}, {"type": "Feature", "geometry": {"type": "Point", "coordinates": [-0.348478, 51.5684608]}, "properties": {"name": "Police station", "operator": "", "osm_id": 135561011, "osm_type": "way"}}, {"type": "Feature", "geometry": {"type": "Point", "coordinates": [-0.0696347, 51.5908309]}, "properties": {"name": "Tottenham Police Station", "operator": "Metropolitan Police", "osm_id": 138165983, "osm_type": "way"}}, {"type": "Feature", "geometry": {"type": "Point", "coordinates": [-0.1149752, 51.3379526]}, "properties": {"name": "Purley and Kenley Wards", "operator": "", "osm_id": 138475227, "osm_type": "way"}}, {"type": "Feature", "geometry": {"type": "Point", "coordinates": [0.0038806, 51.539098]}, "properties": {"name": "Stratford Police Station", "operator": "", "osm_id": 144350979, "osm_type": "way"}}, {"type": "Feature", "geometry": {"type": "Point", "coordinates": [0.0306948, 51.5465241]}, "properties": {"name": "Forest Gate Police Station", "operator": "Metropolitan Police", "osm_id": 144357880, "osm_type": "way"}}, {"type": "Feature", "geometry": {"type": "Point", "coordinates": [-0.2231448, 51.4909925]}, "properties": {"name": "British Transport Police Hammersmith", "operator": "British Transport Police", "osm_id": 144717796, "osm_type": "way"}}, {"type": "Feature", "geometry": {"type": "Point", "coordinates": [0.0384818, 51.3083502]}, "properties": {"name": "Biggin Hill", "operator": "", "osm_id": 145422002, "osm_type": "way"}}, {"type": "Feature", "geometry": {"type": "Point", "coordinates": [-0.0988626, 51.5244944]}, "properties": {"name": "Clerkenwell and Bunhill Wards Police Station", "operator": "Metropolitan Police", "osm_id": 149403852, "osm_type": "way"}}, {"type": "Feature", "geometry": {"type": "Point", "coordinates": [-0.0244411, 51.5840958]}, "properties": {"name": "Police station", "operator": "", "osm_id": 160391564, "osm_type": "way"}}, {"type": "Feature", "geometry": {"type": "Point", "coordinates": [-0.4163662, 51.557005]}, "properties": {"name": "RAF Police", "operator": "RAF Police", "osm_id": 165892462, "osm_type": "way"}}, {"type": "Feature", "geometry": {"type": "Point", "coordinates": [0.0534449, 51.6462632]}, "properties": {"name": "Police station", "operator": "", "osm_id": 172449088, "osm_type": "way"}}, {"type": "Feature", "geometry": {"type": "Point", "coordinates": [-0.2242502, 51.6862747]}, "properties": {"name": "Police station", "operator": "", "osm_id": 182789726, "osm_type": "way"}}, {"type": "Feature", "geometry": {"type": "Point", "coordinates": [0.0734476, 51.5299355]}, "properties": {"name": "Fresh Wharf Custody Base", "operator": "Metropolitan Police", "osm_id": 183253153, "osm_type": "way"}}, {"type": "Feature", "geometry": {"type": "Point", "coordinates": [-0.095669, 51.3705903]}, "properties": {"name": "Croydon Police Station", "operator": "", "osm_id": 193799549, "osm_type": "way"}}, {"type": "Feature", "geometry": {"type": "Point", "coordinates": [-0.0260027, 51.5105317]}, "properties": {"name": "Limehouse Police Station", "operator": "Metropolitan Police", "osm_id": 194401487, "osm_type": "way"}}, {"type": "Feature", "geometry": {"type": "Point", "coordinates": [-0.0125372, 51.5086439]}, "properties": {"name": "British Transport Police", "operator": "British Transport Police", "osm_id": 196769282, "osm_type": "way"}}, {"type": "Feature", "geometry": {"type": "Point", "coordinates": [-0.0844155, 51.4197465]}, "properties": {"name": "Gipsy Hill police station", "operator": "", "osm_id": 202791301, "osm_type": "way"}}, {"type": "Feature", "geometry": {"type": "Point", "coordinates": [-0.0585781, 51.503133]}, "properties": {"name": "Metropolitan Police Service Marine Unit", "operator": "Metropolitan Police", "osm_id": 208086302, "osm_type": "way"}}, {"type": "Feature", "geometry": {"type": "Point", "coordinates": [-0.0239086, 51.5279976]}, "properties": {"name": "Bow Road Police Station", "operator": "Metropolitan Police", "osm_id": 210363902, "osm_type": "way"}}, {"type": "Feature", "geometry": {"type": "Point", "coordinates": [0.0637166, 51.4998258]}, "properties": {"name": "Police station", "operator": "", "osm_id": 222885445, "osm_type": "way"}}, {"type": "Feature", "geometry": {"type": "Point", "coordinates": [-0.3172381, 51.5590719]}, "properties": {"name": "Metropolitan Police (Sudbury Ward)", "operator": "", "osm_id": 229152797, "osm_type": "way"}}, {"type": "Feature", "geometry": {"type": "Point", "coordinates": [-0.305602, 51.5511207]}, "properties": {"name": "Police station", "operator": "", "osm_id": 230851987, "osm_type": "way"}}, {"type": "Feature", "geometry": {"type": "Point", "coordinates": [-0.0993576, 51.3854004]}, "properties": {"name": "Croydon Custody Centre", "operator": "Metropolitan Police", "osm_id": 244634550, "osm_type": "way"}}, {"type": "Feature", "geometry": {"type": "Point", "coordinates": [-0.0098697, 51.4633998]}, "properties": {"name": "Lewisham Police Station", "operator": "Metropolitan Police", "osm_id": 244887255, "osm_type": "way"}}, {"type": "Feature", "geometry": {"type": "Point", "coordinates": [-0.0714098, 51.5182294]}, "properties": {"name": "Spitalfields and Bangaltown and Weaversguards", "operator": "Metropolitan Police", "osm_id": 267565295, "osm_type": "way"}}, {"type": "Feature", "geometry": {"type": "Point", "coordinates": [-0.3293772, 51.4479308]}, "properties": {"name": "Twickenham Police Station", "operator": "Metropolitan Police", "osm_id": 311753729, "osm_type": "way"}}, {"type": "Feature", "geometry": {"type": "Point", "coordinates": [0.2491248, 51.5554021]}, "properties": {"name": "Metropolitan Police Upminster & Cranham Wards", "operator": "Metropolitan Police", "osm_id": 317007120, "osm_type": "way"}}, {"type": "Feature", "geometry": {"type": "Point", "coordinates": [-0.2748733, 51.5087666]}, "properties": {"name": "MPS Acton", "operator": "", "osm_id": 318887955, "osm_type": "way"}}, {"type": "Feature", "geometry": {"type": "Point", "coordinates": [-0.1131025, 51.464773]}, "properties": {"name": "Brixton Police Station", "operator": "Metropolitan Police", "osm_id": 321325246, "osm_type": "way"}}, {"type": "Feature", "geometry": {"type": "Point", "coordinates": [0.0676149, 51.5412259]}, "properties": {"name": "Hertford House", "operator": "", "osm_id": 415075222, "osm_type": "way"}}, {"type": "Feature", "geometry": {"type": "Point", "coordinates": [-0.1338728, 51.519609]}, "properties": {"name": "British Transport Police", "operator": "British Transport Police", "osm_id": 425936623, "osm_type": "way"}}, {"type": "Feature", "geometry": {"type": "Point", "coordinates": [-0.2138526, 51.4648942]}, "properties": {"name": "Metropolitan Police", "operator": "Metropolitan Police", "osm_id": 451257600, "osm_type": "way"}}, {"type": "Feature", "geometry": {"type": "Point", "coordinates": [-0.0124088, 51.5760128]}, "properties": {"name": "Police station", "operator": "", "osm_id": 452820422, "osm_type": "way"}}, {"type": "Feature", "geometry": {"type": "Point", "coordinates": [-0.1407392, 51.5392703]}, "properties": {"name": "Camden Town with Primrose Hill Ward", "operator": "Metropolitan Police", "osm_id": 464827610, "osm_type": "way"}}, {"type": "Feature", "geometry": {"type": "Point", "coordinates": [-0.1057351, 51.4913713]}, "properties": {"name": "Police station", "operator": "", "osm_id": 487978258, "osm_type": "way"}}, {"type": "Feature", "geometry": {"type": "Point", "coordinates": [0.3225879, 51.4790909]}, "properties": {"name": "Grays Police Station", "operator": "Essex Police", "osm_id": 494927928, "osm_type": "way"}}, {"type": "Feature", "geometry": {"type": "Point", "coordinates": [-0.148687, 51.4877866]}, "properties": {"name": "National Visual Forensics Centre", "operator": "British Transport Police", "osm_id": 536465371, "osm_type": "way"}}, {"type": "Feature", "geometry": {"type": "Point", "coordinates": [0.005259, 51.5290232]}, "properties": {"name": "British Transport Police", "operator": "British Transport Police", "osm_id": 542927496, "osm_type": "way"}}, {"type": "Feature", "geometry": {"type": "Point", "coordinates": [-0.1870861, 51.4374591]}, "properties": {"name": "Earlsfield Police Station", "operator": "", "osm_id": 589471683, "osm_type": "way"}}, {"type": "Feature", "geometry": {"type": "Point", "coordinates": [-0.2244509, 51.4948235]}, "properties": {"name": "Hammersmith Police Station", "operator": "Metropolitan Police", "osm_id": 605377426, "osm_type": "way"}}, {"type": "Feature", "geometry": {"type": "Point", "coordinates": [-0.1425733, 51.4528765]}, "properties": {"name": "Police station", "operator": "", "osm_id": 615494004, "osm_type": "way"}}, {"type": "Feature", "geometry": {"type": "Point", "coordinates": [-0.1305014, 51.3994688]}, "properties": {"name": "Pollards Hill Police Station", "operator": "", "osm_id": 640373735, "osm_type": "way"}}, {"type": "Feature", "geometry": {"type": "Point", "coordinates": [-0.4041253, 51.446486]}, "properties": {"name": "Feltham Police Station", "operator": "", "osm_id": 681082197, "osm_type": "way"}}, {"type": "Feature", "geometry": {"type": "Point", "coordinates": [-0.1124761, 51.602959]}, "properties": {"name": "Wood Green Police Station", "operator": "Metropolitan Police", "osm_id": 683679686, "osm_type": "way"}}, {"type": "Feature", "geometry": {"type": "Point", "coordinates": [-0.1396346, 51.5408873]}, "properties": {"name": "British Transport Police Force Headquarters", "operator": "British Transport Police", "osm_id": 684476542, "osm_type": "way"}}, {"type": "Feature", "geometry": {"type": "Point", "coordinates": [-0.4350838, 51.5250807]}, "properties": {"name": "Police station", "operator": "", "osm_id": 693905952, "osm_type": "way"}}, {"type": "Feature", "geometry": {"type": "Point", "coordinates": [-0.2647762, 51.564757]}, "properties": {"name": "Police station", "operator": "", "osm_id": 729403095, "osm_type": "way"}}, {"type": "Feature", "geometry": {"type": "Point", "coordinates": [-0.2029356, 51.5087014]}, "properties": {"name": "Notting Hill Police Station", "operator": "", "osm_id": 765498217, "osm_type": "way"}}, {"type": "Feature", "geometry": {"type": "Point", "coordinates": [0.2199371, 51.5591517]}, "properties": {"name": "Hornchurch Police Station", "operator": "", "osm_id": 790188359, "osm_type": "way"}}, {"type": "Feature", "geometry": {"type": "Point", "coordinates": [-0.197719, 51.4970783]}, "properties": {"name": "Kensington Police Station", "operator": "", "osm_id": 828546818, "osm_type": "way"}}, {"type": "Feature", "geometry": {"type": "Point", "coordinates": [-0.079399, 51.5174969]}, "properties": {"name": "Bishopsgate Police Station", "operator": "", "osm_id": 837558716, "osm_type": "way"}}, {"type": "Feature", "geometry": {"type": "Point", "coordinates": [-0.480806, 51.5491359]}, "properties": {"name": "Uxbridge Police Station", "operator": "", "osm_id": 841888722, "osm_type": "way"}}, {"type": "Feature", "geometry": {"type": "Point", "coordinates": [-0.1129081, 51.4615275]}, "properties": {"name": "Metropolitan Police Coldharbour Ward", "operator": "Metropolitan Police", "osm_id": 900952254, "osm_type": "way"}}, {"type": "Feature", "geometry": {"type": "Point", "coordinates": [0.1149876, 51.3942058]}, "properties": {"name": "Cray Valley East & Cray Valley West Wards", "operator": "", "osm_id": 964058475, "osm_type": "way"}}, {"type": "Feature", "geometry": {"type": "Point", "coordinates": [-0.060038, 51.5028052]}, "properties": {"name": "Metropolitan Police Service Boat Yard", "operator": "Metropolitan Police", "osm_id": 997904639, "osm_type": "way"}}, {"type": "Feature", "geometry": {"type": "Point", "coordinates": [-0.0751047, 51.5578425]}, "properties": {"name": "Stoke Newington Police Station", "operator": "", "osm_id": 1005028779, "osm_type": "way"}}, {"type": "Feature", "geometry": {"type": "Point", "coordinates": [-0.1166835, 51.595329]}, "properties": {"name": "Quicksilver Patrol Base", "operator": "Metropolitan Police", "osm_id": 1030692520, "osm_type": "way"}}, {"type": "Feature", "geometry": {"type": "Point", "coordinates": [0.0253456, 51.5228449]}, "properties": {"name": "Plaistow Police Station", "operator": "Metropolitan Police", "osm_id": 1039055394, "osm_type": "way"}}, {"type": "Feature", "geometry": {"type": "Point", "coordinates": [-0.4274802, 51.5760382]}, "properties": {"name": "Ruislip Police Station", "operator": "Metropolitan Police", "osm_id": 1065379307, "osm_type": "way"}}, {"type": "Feature", "geometry": {"type": "Point", "coordinates": [0.095623, 51.4864982]}, "properties": {"name": "Plumstead Police Station", "operator": "Metropolitan Police", "osm_id": 1087950133, "osm_type": "way"}}, {"type": "Feature", "geometry": {"type": "Point", "coordinates": [-0.3295205, 51.4479966]}, "properties": {"name": "Police station", "operator": "", "osm_id": 1101753309, "osm_type": "way"}}, {"type": "Feature", "geometry": {"type": "Point", "coordinates": [-0.120769, 51.4901625]}, "properties": {"name": "National Crime Agency", "operator": "", "osm_id": 1165080619, "osm_type": "way"}}, {"type": "Feature", "geometry": {"type": "Point", "coordinates": [-0.2034278, 51.4212091]}, "properties": {"name": "Wimbledon Police Station", "operator": "Metropolitan Police", "osm_id": 1181890118, "osm_type": "way"}}, {"type": "Feature", "geometry": {"type": "Point", "coordinates": [-0.001241, 51.6321077]}, "properties": {"name": "Chingford Police Station", "operator": "", "osm_id": 1211255778, "osm_type": "way"}}, {"type": "Feature", "geometry": {"type": "Point", "coordinates": [-0.3862532, 51.4887162]}, "properties": {"name": "Police station", "operator": "", "osm_id": 1231129700, "osm_type": "way"}}, {"type": "Feature", "geometry": {"type": "Point", "coordinates": [-0.1420078, 51.5497002]}, "properties": {"name": "Kentish Town Police Station", "operator": "", "osm_id": 1306564033, "osm_type": "way"}}, {"type": "Feature", "geometry": {"type": "Point", "coordinates": [-0.1865419, 51.4084774]}, "properties": {"name": "Roads and Transport Policing Command West Garage (TDV)", "operator": "Metropolitan Police", "osm_id": 1333600101, "osm_type": "way"}}, {"type": "Feature", "geometry": {"type": "Point", "coordinates": [-0.1250535, 51.5097849]}, "properties": {"name": "Charing Cross Police Station", "operator": "Metropolitan Police", "osm_id": 109553, "osm_type": "relation"}}, {"type": "Feature", "geometry": {"type": "Point", "coordinates": [-0.1655843, 51.5081119]}, "properties": {"name": "The Old Police House", "operator": "", "osm_id": 2513347, "osm_type": "relation"}}, {"type": "Feature", "geometry": {"type": "Point", "coordinates": [0.2832202, 51.5088238]}, "properties": {"name": "South Ockendon Police Station", "operator": "Essex Police", "osm_id": 6601911, "osm_type": "relation"}}, {"type": "Feature", "geometry": {"type": "Point", "coordinates": [-0.1979313, 51.4973641]}, "properties": {"name": "Kensington Police Station", "operator": "", "osm_id": 11329263, "osm_type": "relation"}}, {"type": "Feature", "geometry": {"type": "Point", "coordinates": [-0.117609, 51.4943747]}, "properties": {"name": "Metropolitan Police Forensic Science Laboratory", "operator": "Metropolitan Police", "osm_id": 15804303, "osm_type": "relation"}}]}